KUIPER-00114            
1 65151U 25171V   26192.44074647  .00001071  00000+0  16948-3 0  9999
2 65151  51.8997 348.3683 0000518 104.4799 255.6221 14.79935227 50964
KUIPER-00115            
1 65152U 25171W   26192.71895738 -.00000326  00000+0 -13822-4 0  9995
2 65152  51.9012 339.6379 0000530 113.7985 246.3033 14.79931197 51111
KUIPER-00116            
1 65153U 25171X   26192.61227481  .00002096  00000+0  30382-3 0  9992
2 65153  51.9040 345.1479 0000532 109.1715 250.9305 14.79938308 51022
KUIPER-00118            
1 65154U 25171Y   26192.67706095  .00002048  00000+0  29767-3 0  9994
2 65154  51.9018 347.3108 0000447  97.0788 263.0225 14.79924704 51000
KUIPER-00119            
1 65155U 25171Z   26192.69060016  .00002293  00000+0  32960-3 0  9994
2 65155  51.9029 334.8462 0000242 306.8963  53.1977 14.79937077 51173
KUIPER-00120            
1 65762U 25217A   26192.45471174  .00001034  00000+0  16458-3 0  9990
2 65762  51.8979 225.7683 0000488  85.8495 274.2523 14.79926766 43064
KUIPER-00132            
1 65763U 25217B   26191.98108620  .00019787  00000+0  44557-3 0  9996
2 65763  51.8580 123.2600 0006766  54.7671 305.3951 15.43263261 44440
KUIPER-00133            
1 65764U 25217C   26192.62355022  .00001245  00000+0  19228-3 0  9996
2 65764  51.9027 225.1288 0000422  87.0974 273.0037 14.79927765 43090
KUIPER-00139            
1 65765U 25217D   26192.52352457  .00000926  00000+0  15043-3 0  9991
2 65765  51.8975 193.0305 0000584  76.8305 283.2723 14.79931169 43535
KUIPER-00142            
1 65766U 25217E   26192.06838614  .00001257  00000+0  19381-3 0  9992
2 65766  51.8984 210.0035 0000475  75.8770 284.2245 14.79932949 43256
KUIPER-00145            
1 65767U 25217F   26192.47090001  .00001370  00000+0  20878-3 0  9997
2 65767  51.8988 210.7452 0000364  57.7070 302.3927 14.79914829 43278
KUIPER-00147            
1 65768U 25217G   26192.02924349  .00000916  00000+0  14914-3 0  9999
2 65768  51.8966 215.1779 0000566  83.1838 276.9189 14.79931531 43179
KUIPER-00148            
1 65769U 25217H   26190.01261154  .00001401  00000+0  23174-3 0  9993
2 65769  51.9032 206.5074 0000912 308.5502  51.5377 14.76125880 43124
KUIPER-00150            
1 65770U 25217J   26192.49117846  .00001155  00000+0  18047-3 0  9996
2 65770  51.9004 223.1697 0000427  85.5962 274.5049 14.79929267 43109
KUIPER-00151            
1 65771U 25217K   26192.49924584  .00001150  00000+0  17983-3 0  9995
2 65771  51.9004 215.6319 0000415  79.7754 280.3256 14.79934967 43218
KUIPER-00152            
1 65772U 25217L   26192.47899101  .00001200  00000+0  18644-3 0  9991
2 65772  51.8999 203.2057 0000428  71.3370 288.7639 14.79924522 43380
